STARLINK-31868          
1 59783U 24093B   25235.71188432 -.00000784  00000+0 -18966-4 0  9995
2 59783  43.0003 243.7420 0001159 272.8075  87.2644 15.27570438 72454
STARLINK-31848          
1 59784U 24093C   25235.75158073  .00001245  00000+0  54753-4 0  9993
2 59784  43.0040 243.2652 0001582 274.7329  85.3342 15.27580767 72462
STARLINK-31890          
1 59785U 24093D   25235.42850202  .00001741  00000+0  72782-4 0  9994
2 59785  43.0022 245.1329 0001462 272.7904  87.2780 15.27581685 72411
STARLINK-31862          
1 59786U 24093E   25235.72796991  .00000462  00000+0  26303-4 0  9999
2 59786  42.9999 246.5433 0001131 273.1744  86.8978 15.27575431 72421
STARLINK-31870          
1 59787U 24093F   25235.72411324  .00000664  00000+0  33671-4 0  9994
2 59787  43.0002 246.5141 0001245 271.7729  88.2980 15.27576472 72423
STARLINK-31888          
1 59788U 24093G   25235.73438537  .00000692  00000+0  34652-4 0  9992
2 59788  43.0006 246.5904 0000933 270.3262  89.7483 15.27585216 72425
STARLINK-31863          
1 59789U 24093H   25235.73182396  .00000143  00000+0  14730-4 0  9998
2 59789  42.9996 246.5723 0001125 269.0822  90.9901 15.27574734 72424
STARLINK-31873          
1 59790U 24093J   25235.74210335  .00000172  00000+0  15775-4 0  9998
2 59790  43.0019 246.6496 0001153 271.4917  88.5803 15.27575902 72427
STARLINK-31865          
1 59791U 24093K   25235.74596024  .00000596  00000+0  31181-4 0  9990
2 59791  43.0008 246.6783 0000830 273.9524  86.1232 15.27578241 72426
STARLINK-31823          
1 59794U 24093N   25235.74983942 -.00002081  00000+0 -66154-4 0  9993
2 59794  43.0060 246.7095 0001075 280.1751  79.8980 15.27557807 72422
STARLINK-31916          
1 59795U 24093P   25235.75366522  .00000307  00000+0  20664-4 0  9997
2 59795  43.0048 246.7382 0001349 278.9484  81.1215 15.27582251 72428
STARLINK-31907          
1 59797U 24093R   25235.75623395  .00000806  00000+0  38804-4 0  9992
2 59797  43.0040 246.7593 0001533 273.5068  86.5608 15.27583104 72423
STARLINK-31687          
1 59798U 24093S   25235.52038769  .00000873  00000+0  41231-4 0  9995
2 59798  43.0006 248.4217 0001283 270.7415  89.3290 15.27580627 72385
STARLINK-31810          
1 59799U 24093T   25235.44088125 -.00000121  00000+0  51168-5 0  9996
2 59799  43.0034 248.6895 0001371 277.9828  82.0869 15.27567918 72375
STARLINK-31812          
1 59800U 24093U   25235.76006719 -.00025071  00000+0 -90146-3 0  9992
2 59800  43.0032 246.7879 0001912 261.5646  98.4989 15.27692474 72498
STARLINK-31815          
1 59801U 24093V   25235.76394773  .00000892  00000+0  41960-4 0  9996
2 59801  43.0023 246.8156 0001561 271.7202  88.3471 15.27576583 72428
