[{"OBJECT_NAME":"STARLINK-31868","OBJECT_ID":"2024-093B","EPOCH":"2025-08-23T17:05:06.805248","MEAN_MOTION":15.27570438,"ECCENTRICITY":0.00011598,"INCLINATION":43.0003,"RA_OF_ASC_NODE":243.742,"ARG_OF_PERICENTER":272.8075,"MEAN_ANOMALY":87.2644,"EPHEMERIS_TYPE":0,"CLASSIFICATION_TYPE":"U","NORAD_CAT_ID":59783,"ELEMENT_SET_NO":999,"REV_AT_EPOCH":7245,"BSTAR":-1.896612e-5,"MEAN_MOTION_DOT":-7.84e-6,"MEAN_MOTION_DDOT":0},{"OBJECT_NAME":"STARLINK-31848","OBJECT_ID":"2024-093C","EPOCH":"2025-08-23T18:02:16.575072","MEAN_MOTION":15.27580767,"ECCENTRICITY":0.0001582,"INCLINATION":43.004,"RA_OF_ASC_NODE":243.2652,"ARG_OF_PERICENTER":274.7329,"MEAN_ANOMALY":85.3342,"EPHEMERIS_TYPE":0,"CLASSIFICATION_TYPE":"U","NORAD_CAT_ID":59784,"ELEMENT_SET_NO":999,"REV_AT_EPOCH":7246,"BSTAR":5.4752512e-5,"MEAN_MOTION_DOT":1.245e-5,"MEAN_MOTION_DDOT":0},{"OBJECT_NAME":"STARLINK-31890","OBJECT_ID":"2024-093D","EPOCH":"2025-08-23T10:17:02.574528","MEAN_MOTION":15.27581685,"ECCENTRICITY":0.00014625,"INCLINATION":43.0022,"RA_OF_ASC_NODE":245.1329,"ARG_OF_PERICENTER":272.7904,"MEAN_ANOMALY":87.278,"EPHEMERIS_TYPE":0,"CLASSIFICATION_TYPE":"U","NORAD_CAT_ID":59785,"ELEMENT_SET_NO":999,"REV_AT_EPOCH":7241,"BSTAR":7.2781709e-5,"MEAN_MOTION_DOT":1.741e-5,"MEAN_MOTION_DDOT":0},{"OBJECT_NAME":"STARLINK-31862","OBJECT_ID":"2024-093E","EPOCH":"2025-08-23T17:28:16.600224","MEAN_MOTION":15.27575431,"ECCENTRICITY":0.00011315,"INCLINATION":42.9999,"RA_OF_ASC_NODE":246.5433,"ARG_OF_PERICENTER":273.1744,"MEAN_ANOMALY":86.8978,"EPHEMERIS_TYPE":0,"CLASSIFICATION_TYPE":"U","NORAD_CAT_ID":59786,"ELEMENT_SET_NO":999,"REV_AT_EPOCH":7242,"BSTAR":2.6302867e-5,"MEAN_MOTION_DOT":4.62e-6,"MEAN_MOTION_DDOT":0},{"OBJECT_NAME":"STARLINK-31870","OBJECT_ID":"2024-093F","EPOCH":"2025-08-23T17:22:43.383936","MEAN_MOTION":15.27576472,"ECCENTRICITY":0.0001245,"INCLINATION":43.0002,"RA_OF_ASC_NODE":246.5141,"ARG_OF_PERICENTER":271.7729,"MEAN_ANOMALY":88.298,"EPHEMERIS_TYPE":0,"CLASSIFICATION_TYPE":"U","NORAD_CAT_ID":59787,"ELEMENT_SET_NO":999,"REV_AT_EPOCH":7242,"BSTAR":3.3670565e-5,"MEAN_MOTION_DOT":6.64e-6,"MEAN_MOTION_DDOT":0},{"OBJECT_NAME":"STARLINK-31888","OBJECT_ID":"2024-093G","EPOCH":"2025-08-23T17:37:30.895968","MEAN_MOTION":15.27585216,"ECCENTRICITY":9.33e-5,"INCLINATION":43.0006,"RA_OF_ASC_NODE":246.5904,"ARG_OF_PERICENTER":270.3262,"MEAN_ANOMALY":89.7483,"EPHEMERIS_TYPE":0,"CLASSIFICATION_TYPE":"U","NORAD_CAT_ID":59788,"ELEMENT_SET_NO":999,"REV_AT_EPOCH":7242,"BSTAR":3.4652019e-5,"MEAN_MOTION_DOT":6.92e-6,"MEAN_MOTION_DDOT":0},{"OBJECT_NAME":"STARLINK-31863","OBJECT_ID":"2024-093H","EPOCH":"2025-08-23T17:33:49.590144","MEAN_MOTION":15.27574734,"ECCENTRICITY":0.00011254,"INCLINATION":42.9996,"RA_OF_ASC_NODE":246.5723,"ARG_OF_PERICENTER":269.0822,"MEAN_ANOMALY":90.9901,"EPHEMERIS_TYPE":0,"CLASSIFICATION_TYPE":"U","NORAD_CAT_ID":59789,"ELEMENT_SET_NO":999,"REV_AT_EPOCH":7242,"BSTAR":1.4729956e-5,"MEAN_MOTION_DOT":1.43e-6,"MEAN_MOTION_DDOT":0},{"OBJECT_NAME":"STARLINK-31873","OBJECT_ID":"2024-093J","EPOCH":"2025-08-23T17:48:37.729440","MEAN_MOTION":15.27575902,"ECCENTRICITY":0.00011539,"INCLINATION":43.0019,"RA_OF_ASC_NODE":246.6496,"ARG_OF_PERICENTER":271.4917,"MEAN_ANOMALY":88.5803,"EPHEMERIS_TYPE":0,"CLASSIFICATION_TYPE":"U","NORAD_CAT_ID":59790,"ELEMENT_SET_NO":999,"REV_AT_EPOCH":7242,"BSTAR":1.5774765e-5,"MEAN_MOTION_DOT":1.72e-6,"MEAN_MOTION_DDOT":0},{"OBJECT_NAME":"STARLINK-31865","OBJECT_ID":"2024-093K","EPOCH":"2025-08-23T17:54:10.964736","MEAN_MOTION":15.27578241,"ECCENTRICITY":8.304e-5,"INCLINATION":43.0008,"RA_OF_ASC_NODE":246.6783,"ARG_OF_PERICENTER":273.9524,"MEAN_ANOMALY":86.1232,"EPHEMERIS_TYPE":0,"CLASSIFICATION_TYPE":"U","NORAD_CAT_ID":59791,"ELEMENT_SET_NO":999,"REV_AT_EPOCH":7242,"BSTAR":3.1181336e-5,"MEAN_MOTION_DOT":5.96e-6,"MEAN_MOTION_DDOT":0},{"OBJECT_NAME":"STARLINK-31823","OBJECT_ID":"2024-093N","EPOCH":"2025-08-23T17:59:46.125888","MEAN_MOTION":15.27557807,"ECCENTRICITY":0.00010758,"INCLINATION":43.006,"RA_OF_ASC_NODE":246.7095,"ARG_OF_PERICENTER":280.1751,"MEAN_ANOMALY":79.898,"EPHEMERIS_TYPE":0,"CLASSIFICATION_TYPE":"U","NORAD_CAT_ID":59794,"ELEMENT_SET_NO":999,"REV_AT_EPOCH":7242,"BSTAR":-6.6153597e-5,"MEAN_MOTION_DOT":-2.081e-5,"MEAN_MOTION_DDOT":0},{"OBJECT_NAME":"STARLINK-31916","OBJECT_ID":"2024-093P","EPOCH":"2025-08-23T18:05:16.675008","MEAN_MOTION":15.27582251,"ECCENTRICITY":0.00013499,"INCLINATION":43.0048,"RA_OF_ASC_NODE":246.7382,"ARG_OF_PERICENTER":278.9484,"MEAN_ANOMALY":81.1215,"EPHEMERIS_TYPE":0,"CLASSIFICATION_TYPE":"U","NORAD_CAT_ID":59795,"ELEMENT_SET_NO":999,"REV_AT_EPOCH":7242,"BSTAR":2.0663962e-5,"MEAN_MOTION_DOT":3.07e-6,"MEAN_MOTION_DDOT":0},{"OBJECT_NAME":"STARLINK-31907","OBJECT_ID":"2024-093R","EPOCH":"2025-08-23T18:08:58.613280","MEAN_MOTION":15.27583104,"ECCENTRICITY":0.00015333,"INCLINATION":43.004,"RA_OF_ASC_NODE":246.7593,"ARG_OF_PERICENTER":273.5068,"MEAN_ANOMALY":86.5608,"EPHEMERIS_TYPE":0,"CLASSIFICATION_TYPE":"U","NORAD_CAT_ID":59797,"ELEMENT_SET_NO":999,"REV_AT_EPOCH":7242,"BSTAR":3.8804138e-5,"MEAN_MOTION_DOT":8.06e-6,"MEAN_MOTION_DDOT":0},{"OBJECT_NAME":"STARLINK-31687","OBJECT_ID":"2024-093S","EPOCH":"2025-08-23T12:29:21.496416","MEAN_MOTION":15.27580627,"ECCENTRICITY":0.00012831,"INCLINATION":43.0006,"RA_OF_ASC_NODE":248.4217,"ARG_OF_PERICENTER":270.7415,"MEAN_ANOMALY":89.329,"EPHEMERIS_TYPE":0,"CLASSIFICATION_TYPE":"U","NORAD_CAT_ID":59798,"ELEMENT_SET_NO":999,"REV_AT_EPOCH":7238,"BSTAR":4.1230599e-5,"MEAN_MOTION_DOT":8.73e-6,"MEAN_MOTION_DDOT":0},{"OBJECT_NAME":"STARLINK-31810","OBJECT_ID":"2024-093T","EPOCH":"2025-08-23T10:34:52.140000","MEAN_MOTION":15.27567918,"ECCENTRICITY":0.00013716,"INCLINATION":43.0034,"RA_OF_ASC_NODE":248.6895,"ARG_OF_PERICENTER":277.9828,"MEAN_ANOMALY":82.0869,"EPHEMERIS_TYPE":0,"CLASSIFICATION_TYPE":"U","NORAD_CAT_ID":59799,"ELEMENT_SET_NO":999,"REV_AT_EPOCH":7237,"BSTAR":5.116784e-6,"MEAN_MOTION_DOT":-1.21e-6,"MEAN_MOTION_DDOT":0},{"OBJECT_NAME":"STARLINK-31812","OBJECT_ID":"2024-093U","EPOCH":"2025-08-23T18:14:29.805216","MEAN_MOTION":15.27692474,"ECCENTRICITY":0.00019122,"INCLINATION":43.0032,"RA_OF_ASC_NODE":246.7879,"ARG_OF_PERICENTER":261.5646,"MEAN_ANOMALY":98.4989,"EPHEMERIS_TYPE":0,"CLASSIFICATION_TYPE":"U","NORAD_CAT_ID":59800,"ELEMENT_SET_NO":999,"REV_AT_EPOCH":7249,"BSTAR":-0.00090145996,"MEAN_MOTION_DOT":-0.00025071,"MEAN_MOTION_DDOT":0},{"OBJECT_NAME":"STARLINK-31815","OBJECT_ID":"2024-093V","EPOCH":"2025-08-23T18:20:05.083872","MEAN_MOTION":15.27576583,"ECCENTRICITY":0.00015615,"INCLINATION":43.0023,"RA_OF_ASC_NODE":246.8156,"ARG_OF_PERICENTER":271.7202,"MEAN_ANOMALY":88.3471,"EPHEMERIS_TYPE":0,"CLASSIFICATION_TYPE":"U","NORAD_CAT_ID":59801,"ELEMENT_SET_NO":999,"REV_AT_EPOCH":7242,"BSTAR":4.1960408e-5,"MEAN_MOTION_DOT":8.92e-6,"MEAN_MOTION_DDOT":0}]
